COSMOS 2361 [-]         
1 25590U 98076A   23123.56138208  .00000084  00000+0  74622-4 0  9991
2 25590  82.9331 329.5398 0032426  40.6407  17.7664 13.73058336220167
COSMOS 2378 [-]         
1 26818U 01023A   23123.41514199  .00000063  00000+0  51321-4 0  9990
2 26818  82.9288 347.1004 0032711 346.5697 187.7377 13.74000023 98172
COSMOS 2389 [-]         
1 27436U 02026A   23123.54478306  .00000068  00000+0  54779-4 0  9999
2 27436  82.9473 293.1350 0045921 201.0530 226.7445 13.75009854 50357
COSMOS 2398 [-]         
1 27818U 03023A   23123.45348441  .00000056  00000+0  45171-4 0  9990
2 27818  82.9474 255.8234 0030195 241.9458 182.1936 13.72243280997278
COSMOS 2407 [+]         
1 28380U 04028A   23123.59370806  .00000079  00000+0  65169-4 0  9990
2 28380  82.9635 199.4071 0038871 200.1897 272.7113 13.76151046942980
COSMOS 2414 [+]         
1 28521U 05002A   23123.53602219  .00000091  00000+0  63652-4 0  9999
2 28521  82.9520 186.2376 0039673 343.6733  16.3149 13.87702495925631
COSMOS 2429 [-]         
1 32052U 07038A   23123.55940804  .00000076  00000+0  63653-4 0  9995
2 32052  82.9792 326.4616 0038449 178.4772 181.6508 13.74996282784899
COSMOS 2454 [-]         
1 35635U 09039A   23123.57108512  .00000096  00000+0  65533-4 0  9993
2 35635  82.9572 171.9697 0017739 283.6337 186.5638 13.89730758698962
COSMOS 2463 [+]         
1 36519U 10017A   23123.43548256  .00000073  00000+0  63490-4 0  9996
2 36519  82.9639   7.7810 0037386  56.3942 116.4091 13.71506246651551
